{
    "links": {
        "self": "http://www.neowsapp.com/rest/v1/neo/54073370?api_key=iIulBulltgU6a56xZRHN4H3l9WmuAYTsLGpBGhQ2"
    },
    "id": "54073370",
    "neo_reference_id": "54073370",
    "name": "(2020 UX)",
    "designation": "2020 UX",
    "nasa_jpl_url": "http://ssd.jpl.nasa.gov/sbdb.cgi?sstr=54073370",
    "absolute_magnitude_h": 31.098,
    "estimated_diameter": {
        "kilometers": {
            "estimated_diameter_min": 0.0016030792,
            "estimated_diameter_max": 0.003584594
        },
        "meters": {
            "estimated_diameter_min": 1.6030791905,
            "estimated_diameter_max": 3.5845940434
        },
        "miles": {
            "estimated_diameter_min": 0.0009961069,
            "estimated_diameter_max": 0.0022273628
        },
        "feet": {
            "estimated_diameter_min": 5.2594463315,
            "estimated_diameter_max": 11.7604795213
        }
    },
    "is_potentially_hazardous_asteroid": false,
    "close_approach_data": [
        {
            "close_approach_date": "2020-10-19",
            "close_approach_date_full": "2020-Oct-19 06:56",
            "epoch_date_close_approach": 1603090560000,
            "relative_velocity": {
                "kilometers_per_second": "8.7300915031",
                "kilometers_per_hour": "31428.329411062",
                "miles_per_hour": "19528.3416832235"
            },
            "miss_distance": {
                "astronomical": "0.0012708553",
                "lunar": "0.4943627117",
                "kilometers": "190117.245958211",
                "miles": "118133.3787208718"
            },
            "orbiting_body": "Earth"
        },
        {
            "close_approach_date": "2020-10-19",
            "close_approach_date_full": "2020-Oct-19 13:33",
            "epoch_date_close_approach": 1603114380000,
            "relative_velocity": {
                "kilometers_per_second": "9.4587052408",
                "kilometers_per_hour": "34051.3388667653",
                "miles_per_hour": "21158.1777530742"
            },
            "miss_distance": {
                "astronomical": "0.0030853783",
                "lunar": "1.2002121587",
                "kilometers": "461566.021824221",
                "miles": "286803.8266914098"
            },
            "orbiting_body": "Moon"
        },
        {
            "close_approach_date": "2021-05-10",
            "close_approach_date_full": "2021-May-10 23:44",
            "epoch_date_close_approach": 1620690240000,
            "relative_velocity": {
                "kilometers_per_second": "7.9432556563",
                "kilometers_per_hour": "28595.7203626696",
                "miles_per_hour": "17768.268577571"
            },
            "miss_distance": {
                "astronomical": "0.4548838749",
                "lunar": "176.9498273361",
                "kilometers": "68049658.782386463",
                "miles": "42284097.2277326694"
            },
            "orbiting_body": "Earth"
        }
    ],
    "orbital_data": {
        "orbit_id": "1",
        "orbit_determination_date": "2020-10-18 00:12:49",
        "first_observation_date": "2020-10-17",
        "last_observation_date": "2020-10-18",
        "data_arc_in_days": 1,
        "observations_used": 11,
        "orbit_uncertainty": "8",
        "minimum_orbit_intersection": ".000229662",
        "jupiter_tisserand_invariant": "5.026",
        "epoch_osculation": "2459140.5",
        "eccentricity": ".3374041109799905",
        "semi_major_axis": "1.270301945647372",
        "inclination": "1.751608205186685",
        "ascending_node_longitude": "26.68197101397136",
        "orbital_period": "522.9484399773728",
        "perihelion_distance": ".8416968470000684",
        "perihelion_argument": "66.80855818299054",
        "aphelion_distance": "1.698907044294676",
        "perihelion_time": "2459193.194061537697",
        "mean_anomaly": "323.7251768943192",
        "mean_motion": ".6884043865119411",
        "equinox": "J2000",
        "orbit_class": {
            "orbit_class_type": "APO",
            "orbit_class_description": "Near-Earth asteroid orbits which cross the Earth’s orbit similar to that of 1862 Apollo",
            "orbit_class_range": "a (semi-major axis) > 1.0 AU; q (perihelion) < 1.017 AU"
        }
    },
    "is_sentry_object": false
}